[{"OBJECT_NAME":"STARLINK-30960","OBJECT_ID":"2023-183V","EPOCH":"2026-01-10T22:16:24.349440","MEAN_MOTION":15.38789834,"ECCENTRICITY":0.0013672,"INCLINATION":42.9971,"RA_OF_ASC_NODE":284.9941,"ARG_OF_PERICENTER":209.6926,"MEAN_ANOMALY":150.3155,"EPHEMERIS_TYPE":0,"CLASSIFICATION_TYPE":"U","NORAD_CAT_ID":58456,"ELEMENT_SET_NO":999,"REV_AT_EPOCH":11887,"BSTAR":0.00060823147,"MEAN_MOTION_DOT":0.00023703,"MEAN_MOTION_DDOT":0},{"OBJECT_NAME":"STARLINK-30958","OBJECT_ID":"2023-183W","EPOCH":"2026-01-10T07:13:00.018624","MEAN_MOTION":15.02546411,"ECCENTRICITY":7.893e-5,"INCLINATION":43.0034,"RA_OF_ASC_NODE":0.3665,"ARG_OF_PERICENTER":283.4307,"MEAN_ANOMALY":76.6448,"EPHEMERIS_TYPE":0,"CLASSIFICATION_TYPE":"U","NORAD_CAT_ID":58457,"ELEMENT_SET_NO":999,"REV_AT_EPOCH":11793,"BSTAR":8.8339788e-5,"MEAN_MOTION_DOT":9.9e-6,"MEAN_MOTION_DDOT":0},{"OBJECT_NAME":"STARLINK-30962","OBJECT_ID":"2023-183X","EPOCH":"2026-01-10T09:49:18.011136","MEAN_MOTION":15.02536359,"ECCENTRICITY":8.983e-5,"INCLINATION":43.004,"RA_OF_ASC_NODE":359.4626,"ARG_OF_PERICENTER":264.9482,"MEAN_ANOMALY":95.1258,"EPHEMERIS_TYPE":0,"CLASSIFICATION_TYPE":"U","NORAD_CAT_ID":58458,"ELEMENT_SET_NO":999,"REV_AT_EPOCH":11795,"BSTAR":4.1729925e-5,"MEAN_MOTION_DOT":3.6e-6,"MEAN_MOTION_DDOT":0},{"OBJECT_NAME":"STARLINK-30977","OBJECT_ID":"2023-183Y","EPOCH":"2026-01-10T23:27:52.265664","MEAN_MOTION":15.02537434,"ECCENTRICITY":0.00011174,"INCLINATION":43.0059,"RA_OF_ASC_NODE":356.8402,"ARG_OF_PERICENTER":276.5212,"MEAN_ANOMALY":83.5503,"EPHEMERIS_TYPE":0,"CLASSIFICATION_TYPE":"U","NORAD_CAT_ID":58459,"ELEMENT_SET_NO":999,"REV_AT_EPOCH":11803,"BSTAR":-2.847208e-6,"MEAN_MOTION_DOT":-2.42e-6,"MEAN_MOTION_DDOT":0},{"OBJECT_NAME":"STARLINK-30947","OBJECT_ID":"2023-186A","EPOCH":"2026-01-10T08:39:34.846272","MEAN_MOTION":15.02535665,"ECCENTRICITY":0.00015138,"INCLINATION":43.0048,"RA_OF_ASC_NODE":24.7135,"ARG_OF_PERICENTER":266.1524,"MEAN_ANOMALY":93.9145,"EPHEMERIS_TYPE":0,"CLASSIFICATION_TYPE":"U","NORAD_CAT_ID":58473,"ELEMENT_SET_NO":999,"REV_AT_EPOCH":11707,"BSTAR":-1.0158059e-5,"MEAN_MOTION_DOT":-3.41e-6,"MEAN_MOTION_DDOT":0},{"OBJECT_NAME":"STARLINK-30995","OBJECT_ID":"2023-186B","EPOCH":"2026-01-11T00:00:02.000160","MEAN_MOTION":15.50226124,"ECCENTRICITY":0.00198388,"INCLINATION":42.9934,"RA_OF_ASC_NODE":208.9214,"ARG_OF_PERICENTER":274.4914,"MEAN_ANOMALY":320.1647,"EPHEMERIS_TYPE":0,"CLASSIFICATION_TYPE":"U","NORAD_CAT_ID":58474,"ELEMENT_SET_NO":999,"REV_AT_EPOCH":589,"BSTAR":0.0048549467,"MEAN_MOTION_DOT":0.00293702,"MEAN_MOTION_DDOT":0},{"OBJECT_NAME":"STARLINK-30941","OBJECT_ID":"2023-186C","EPOCH":"2026-01-10T10:05:42.681696","MEAN_MOTION":15.02551312,"ECCENTRICITY":0.00012343,"INCLINATION":43.0047,"RA_OF_ASC_NODE":24.3013,"ARG_OF_PERICENTER":273.4631,"MEAN_ANOMALY":86.6071,"EPHEMERIS_TYPE":0,"CLASSIFICATION_TYPE":"U","NORAD_CAT_ID":58475,"ELEMENT_SET_NO":999,"REV_AT_EPOCH":11708,"BSTAR":-0.00034429965,"MEAN_MOTION_DOT":-4.853e-5,"MEAN_MOTION_DDOT":0},{"OBJECT_NAME":"STARLINK-30980","OBJECT_ID":"2023-186D","EPOCH":"2026-01-10T08:25:11.587584","MEAN_MOTION":15.02545648,"ECCENTRICITY":9.747e-5,"INCLINATION":43.0026,"RA_OF_ASC_NODE":24.6358,"ARG_OF_PERICENTER":277.8368,"MEAN_ANOMALY":82.2364,"EPHEMERIS_TYPE":0,"CLASSIFICATION_TYPE":"U","NORAD_CAT_ID":58476,"ELEMENT_SET_NO":999,"REV_AT_EPOCH":11707,"BSTAR":-0.00020838285,"MEAN_MOTION_DOT":-3.018e-5,"MEAN_MOTION_DDOT":0},{"OBJECT_NAME":"STARLINK-30965","OBJECT_ID":"2023-186E","EPOCH":"2026-01-11T00:02:04.263936","MEAN_MOTION":15.02534877,"ECCENTRICITY":8.594e-5,"INCLINATION":43.005,"RA_OF_ASC_NODE":7.9175,"ARG_OF_PERICENTER":286.639,"MEAN_ANOMALY":73.4358,"EPHEMERIS_TYPE":0,"CLASSIFICATION_TYPE":"U","NORAD_CAT_ID":58477,"ELEMENT_SET_NO":999,"REV_AT_EPOCH":11732,"BSTAR":5.948141e-5,"MEAN_MOTION_DOT":6.0e-6,"MEAN_MOTION_DDOT":0},{"OBJECT_NAME":"STARLINK-30990","OBJECT_ID":"2023-186F","EPOCH":"2026-01-10T09:56:07.547136","MEAN_MOTION":15.02536451,"ECCENTRICITY":0.00012791,"INCLINATION":43.0047,"RA_OF_ASC_NODE":24.2478,"ARG_OF_PERICENTER":268.8955,"MEAN_ANOMALY":91.1741,"EPHEMERIS_TYPE":0,"CLASSIFICATION_TYPE":"U","NORAD_CAT_ID":58478,"ELEMENT_SET_NO":999,"REV_AT_EPOCH":11712,"BSTAR":-2.4132409e-5,"MEAN_MOTION_DOT":-5.3e-6,"MEAN_MOTION_DDOT":0},{"OBJECT_NAME":"STARLINK-30984","OBJECT_ID":"2023-186H","EPOCH":"2026-01-10T08:48:59.996448","MEAN_MOTION":15.02538391,"ECCENTRICITY":9.167e-5,"INCLINATION":43.0041,"RA_OF_ASC_NODE":23.8949,"ARG_OF_PERICENTER":276.0014,"MEAN_ANOMALY":84.0724,"EPHEMERIS_TYPE":0,"CLASSIFICATION_TYPE":"U","NORAD_CAT_ID":58480,"ELEMENT_SET_NO":999,"REV_AT_EPOCH":11708,"BSTAR":-6.8083216e-5,"MEAN_MOTION_DOT":-1.123e-5,"MEAN_MOTION_DDOT":0},{"OBJECT_NAME":"STARLINK-30956","OBJECT_ID":"2023-186J","EPOCH":"2026-01-10T23:34:09.808608","MEAN_MOTION":15.02535075,"ECCENTRICITY":0.00013239,"INCLINATION":43.0061,"RA_OF_ASC_NODE":356.3491,"ARG_OF_PERICENTER":262.9264,"MEAN_ANOMALY":97.1427,"EPHEMERIS_TYPE":0,"CLASSIFICATION_TYPE":"U","NORAD_CAT_ID":58481,"ELEMENT_SET_NO":999,"REV_AT_EPOCH":11745,"BSTAR":-5.027419e-6,"MEAN_MOTION_DOT":-2.72e-6,"MEAN_MOTION_DDOT":0},{"OBJECT_NAME":"STARLINK-30997","OBJECT_ID":"2023-186K","EPOCH":"2026-01-10T09:12:57.718368","MEAN_MOTION":15.02542659,"ECCENTRICITY":0.00011606,"INCLINATION":43.0028,"RA_OF_ASC_NODE":23.9937,"ARG_OF_PERICENTER":273.6374,"MEAN_ANOMALY":86.4335,"EPHEMERIS_TYPE":0,"CLASSIFICATION_TYPE":"U","NORAD_CAT_ID":58482,"ELEMENT_SET_NO":999,"REV_AT_EPOCH":11708,"BSTAR":0.00059851325,"MEAN_MOTION_DOT":7.892e-5,"MEAN_MOTION_DDOT":0},{"OBJECT_NAME":"STARLINK-30994","OBJECT_ID":"2023-186L","EPOCH":"2026-01-10T07:06:28.708704","MEAN_MOTION":15.27570863,"ECCENTRICITY":6.577e-5,"INCLINATION":43.0042,"RA_OF_ASC_NODE":229.942,"ARG_OF_PERICENTER":289.0313,"MEAN_ANOMALY":71.0468,"EPHEMERIS_TYPE":0,"CLASSIFICATION_TYPE":"U","NORAD_CAT_ID":58483,"ELEMENT_SET_NO":999,"REV_AT_EPOCH":11887,"BSTAR":-3.365534e-5,"MEAN_MOTION_DOT":-1.188e-5,"MEAN_MOTION_DDOT":0},{"OBJECT_NAME":"STARLINK-30991","OBJECT_ID":"2023-186M","EPOCH":"2026-01-10T08:44:12.217056","MEAN_MOTION":15.02533554,"ECCENTRICITY":0.00012204,"INCLINATION":43.0049,"RA_OF_ASC_NODE":23.8696,"ARG_OF_PERICENTER":264.7387,"MEAN_ANOMALY":95.3316,"EPHEMERIS_TYPE":0,"CLASSIFICATION_TYPE":"U","NORAD_CAT_ID":58484,"ELEMENT_SET_NO":999,"REV_AT_EPOCH":11707,"BSTAR":-5.587857e-6,"MEAN_MOTION_DOT":-2.79e-6,"MEAN_MOTION_DDOT":0},{"OBJECT_NAME":"STARLINK-30979","OBJECT_ID":"2023-186N","EPOCH":"2026-01-10T09:46:26.971104","MEAN_MOTION":15.02575319,"ECCENTRICITY":6.926e-5,"INCLINATION":43.0048,"RA_OF_ASC_NODE":24.2002,"ARG_OF_PERICENTER":280.2233,"MEAN_ANOMALY":79.8531,"EPHEMERIS_TYPE":0,"CLASSIFICATION_TYPE":"U","NORAD_CAT_ID":58485,"ELEMENT_SET_NO":999,"REV_AT_EPOCH":11707,"BSTAR":0.00021415252,"MEAN_MOTION_DOT":2.693e-5,"MEAN_MOTION_DDOT":0}]
