STARLINK-30960          
1 58456U 23183V   26010.92805960  .00023703  00000+0  60823-3 0  9999
2 58456  42.9971 284.9941 0013672 209.6926 150.3155 15.38789834118873
STARLINK-30958          
1 58457U 23183W   26010.30069466  .00000990  00000+0  88340-4 0  9993
2 58457  43.0034   0.3665 0000789 283.4307  76.6448 15.02546411117931
STARLINK-30962          
1 58458U 23183X   26010.40923624  .00000360  00000+0  41730-4 0  9993
2 58458  43.0040 359.4626 0000898 264.9482  95.1258 15.02536359117950
STARLINK-30977          
1 58459U 23183Y   26010.97768826 -.00000242  00000+0 -28472-5 0  9997
2 58459  43.0059 356.8402 0001117 276.5212  83.5503 15.02537434118038
STARLINK-30947          
1 58473U 23186A   26010.36081998 -.00000341  00000+0 -10158-4 0  9998
2 58473  43.0048  24.7135 0001513 266.1524  93.9145 15.02535665117071
STARLINK-30995          
1 58474U 23186B   26011.00002315  .00293702  00000+0  48549-2 0  9993
2 58474  42.9934 208.9214 0019838 274.4914 320.1647 15.50226124  5890
STARLINK-30941          
1 58475U 23186C   26010.42063289 -.00004853  00000+0 -34430-3 0  9990
2 58475  43.0047  24.3013 0001234 273.4631  86.6071 15.02551312117088
STARLINK-30980          
1 58476U 23186D   26010.35082856 -.00003018  00000+0 -20838-3 0  9993
2 58476  43.0026  24.6358 0000974 277.8368  82.2364 15.02545648117077
STARLINK-30965          
1 58477U 23186E   26011.00143824  .00000600  00000+0  59481-4 0  9999
2 58477  43.0050   7.9175 0000859 286.6390  73.4358 15.02534877117326
STARLINK-30990          
1 58478U 23186F   26010.41397624 -.00000530  00000+0 -24132-4 0  9992
2 58478  43.0047  24.2478 0001279 268.8955  91.1741 15.02536451117128
STARLINK-30984          
1 58480U 23186H   26010.36736107 -.00001123  00000+0 -68083-4 0  9994
2 58480  43.0041  23.8949 0000916 276.0014  84.0724 15.02538391117089
STARLINK-30956          
1 58481U 23186J   26010.98205797 -.00000272  00000+0 -50274-5 0  9997
2 58481  43.0061 356.3491 0001323 262.9264  97.1427 15.02535075117454
STARLINK-30997          
1 58482U 23186K   26010.38400137  .00007892  00000+0  59851-3 0  9998
2 58482  43.0028  23.9937 0001160 273.6374  86.4335 15.02542659117084
STARLINK-30994          
1 58483U 23186L   26010.29616561 -.00001188  00000+0 -33655-4 0  9998
2 58483  43.0042 229.9420 0000657 289.0313  71.0468 15.27570863118870
STARLINK-30991          
1 58484U 23186M   26010.36403029 -.00000279  00000+0 -55879-5 0  9993
2 58484  43.0049  23.8696 0001220 264.7387  95.3316 15.02533554117073
STARLINK-30979          
1 58485U 23186N   26010.40725661  .00002693  00000+0  21415-3 0  9995
2 58485  43.0048  24.2002 0000692 280.2233  79.8531 15.02575319117075
